{
"type": "FeatureCollection",
"name": "Untitled layer",
"features": [
{ "type": "Feature", "properties": { "Name": "Polygon 1" }, "geometry": { "type": "Polygon", "coordinates": [ [ [ 73.1471892, 31.4622871, 0.0 ], [ 73.1473273, 31.4622413, 0.0 ], [ 73.1476398, 31.4623156, 0.0 ], [ 73.147912, 31.4623717, 0.0 ], [ 73.1484351, 31.4624758, 0.0 ], [ 73.1490171, 31.4625845, 0.0 ], [ 73.149225, 31.4626291, 0.0 ], [ 73.1494462, 31.4626691, 0.0 ], [ 73.1496286, 31.4627, 0.0 ], [ 73.1496903, 31.4624838, 0.0 ], [ 73.1497252, 31.4623156, 0.0 ], [ 73.1497976, 31.4620606, 0.0 ], [ 73.1494248, 31.4619999, 0.0 ], [ 73.1488977, 31.461897, 0.0 ], [ 73.1482969, 31.4617769, 0.0 ], [ 73.1478624, 31.4616899, 0.0 ], [ 73.1474493, 31.4616041, 0.0 ], [ 73.1474332, 31.4616373, 0.0 ], [ 73.1473421, 31.4619462, 0.0 ], [ 73.1473045, 31.4620846, 0.0 ], [ 73.1472884, 31.4622299, 0.0 ], [ 73.1472884, 31.4622459, 0.0 ], [ 73.1471865, 31.4622733, 0.0 ], [ 73.1472817, 31.461961, 0.0 ], [ 73.1473461, 31.4617551, 0.0 ], [ 73.1474212, 31.4615538, 0.0 ], [ 73.148081, 31.4616865, 0.0 ], [ 73.1489044, 31.4618512, 0.0 ], [ 73.149406, 31.4619473, 0.0 ], [ 73.1498553, 31.4620125, 0.0 ], [ 73.1498432, 31.4620869, 0.0 ], [ 73.1497373, 31.4624506, 0.0 ], [ 73.149693, 31.4626085, 0.0 ], [ 73.1496407, 31.4627664, 0.0 ], [ 73.1492826, 31.462692, 0.0 ], [ 73.1491713, 31.4626634, 0.0 ], [ 73.1488749, 31.4626128, 0.0 ], [ 73.1486805, 31.4625805, 0.0 ], [ 73.1484793, 31.4625341, 0.0 ], [ 73.1481306, 31.4624666, 0.0 ], [ 73.147959, 31.4624358, 0.0 ], [ 73.1476351, 31.462378, 0.0 ], [ 73.147456, 31.4623431, 0.0 ], [ 73.1471892, 31.4622871, 0.0 ] ] ] } }
]
}
