{
  "type": "FeatureCollection",
  "features": [
    {
      "type": "Feature",
      "geometry": {
        "type": "LineString",
        "coordinates": [
          [
            73.1473346,
            31.46193335
          ],
          [
            73.14814394999999,
            31.462078599999998
          ],
          [
            73.14905925,
            31.4622639
          ],
          [
            73.14972115,
            31.46238975
          ]
        ]
      },
      "properties": {
        "name": "Road Centerline",
        "waypoint_count": 4
      }
    }
  ]
}